# Dwarf planets of the Solar System along with all known satellites.
# Each object has all alternative designations.
# Pluto is defined first, so that it will be selected by the '9' key.

# Orbits of primary bodies and barycenters around either the Sun or the
# Solar System Barycenter (SSB) were queried from the Horizons system:
# https://ssd.jpl.nasa.gov/horizons/

# Colors are obtained from Askaniy's TrueColorTools
# (https://github.com/Askaniy/TrueColorTools), with the first entry for each
# body being used. The 'icy' textures are calibrated to an albedo of 0.8, and
# objects which use it, in combination with BlendTexture, have their colors
# divided by its brightness (0.906332) so that the resulting appearance matches
# their albedo (spherical/Bond, if known; otherwise geometric). The asteroid
# texture is calibrated to 0.4.

# Albedos (geometric and Bond) and phase integrals of Pluto, Charon,
# Haumea system, Quaoar, Makemake and Eris are taken from
# Helfenstein and Verbiscer (2025), Planet. Sci. J. 6, 144
#   "On Error Estimates for Hapke Photometric Model Parameters from
#   Disk-integrated Phase Curves of Airless Planetary Bodies"
#   https://ui.adsabs.harvard.edu/abs/2025PSJ.....6..144H/abstract

# Following Buratti et al. (1984), Icarus 59, 392-405, "Voyager disk resolved
# photometry of the Saturnian satellites", objects with geometric albedos
# (proxy for normal reflectance) below 0.6 are assigned LunarLambert values of
# 1, while those above receive 0.5.


# Stern et al. (2018), Annu. Rev. Astro. Astrophys. 56, 357-392
#   "The Pluto System After New Horizons"
#   https://ui.adsabs.harvard.edu/abs/2018ARA%26A..56..357S/abstract
# Masses of Pluto and Charon and mean orbital elements from
# Brozović and Jacobson (2024), AJ 167, 256
#   "Post-new-horizons Orbits and Masses for the Satellites of Pluto"
#   https://ui.adsabs.harvard.edu/abs/2024AJ....167..256B/abstract
# Sizes and rotational parameters of Nix and Hydra from
#   https://naif.jpl.nasa.gov/pub/naif/pds/data/nh-j_p_ss-spice-6-v1.0/nhsp_1000/data/pck/nh_pcnh_010.tpc
# Masses and densities of Nix and Hydra from Porter and Canup (2023), Planet. Sci. J. 4, 120
#   "Orbits and Masses of the Small Satellites of Pluto"
#   https://ui.adsabs.harvard.edu/abs/2023PSJ.....4..120P/abstract
# Albedos of Nix and Hydra from Porter et al. (2021), "Charon: Colors and Photometric Properties"
#   (chapter from "The Pluto System After New Horizons"), p. 426
ReferencePoint "Pluto-Charon" "Sol"
{
	# CustomOrbit "pluto"
	EllipticalOrbit
	{
		Epoch	2457218.0  # 2015 Jul 14 12:00
		Period	248.0553249511832
		SemiMajorAxis	39.47846297299562
		Eccentricity	0.2501751659981197
		Inclination	17.16199308367073
		AscendingNode	110.287823984409
		ArgOfPericenter	113.3692019799804
		MeanAnomaly	37.59869705192153
	}
	# Make the orbit and label visible
	Visible true
	Clickable true
}

"Pluto:134340 Pluto" "Sol"
{
	Class	"dwarfplanet"
	Texture	"pluto.*"
	NormalMap	"pluto-normal.*"
	Color	[ 1.0 0.933 0.809 ]
	Radius	1188.3
	Mass<kg>	1.3025e22
	Atmosphere
	{
		Height	130
		Mie	0.00005
		MieAsymmetry	-0.55
		Rayleigh	[ 0.00002 0.00003 0.00006 ]
		MieScaleHeight	60
	}
	OrbitFrame
	{
		EclipticJ2000	{ Center "Sol/Pluto-Charon" }
	}
	EllipticalOrbit
	{
		Epoch	2457218.0  # 2015 Jul 14 12:00
		Period	6.387221  # mean
		SemiMajorAxis	2130.734  # separation = 19595.764 km, mass ratio = 0.1220
		Eccentricity	0.000161  # mean
		Inclination	112.888628
		AscendingNode	227.392167
		ArgOfPericenter	352.410172
		MeanAnomaly	213.475686
	}
	BodyFrame	{ EclipticJ2000 {} }
	UniformRotation  # to match orbit
	{
		Epoch	2457218.0  # 2015 Jul 14 12:00
		Inclination	112.888628
		AscendingNode	227.392167
		MeridianAngle	25.885858
	}
	LunarLambert	0.7  # Buratti et al. (2017), 2017Icar..287..207B
	# GeomAlbedo	0.506
	Reflectivity	0.402  # Bond albedo
	InfoURL	"https://en.wikipedia.org/wiki/Pluto"
}

"Charon:Pluto I:134340 Pluto I:S 1978 P 1:P1" "Sol/Pluto"
{
	Class	"moon"
	Texture	"charon.*"
	NormalMap	"charon-normal.*"
	Color	[ 1.0 0.996 0.995 ]
	Radius	606.0
	Mass<kg>	1.5897e21
	OrbitFrame
	{
		EclipticJ2000	{ Center "Sol/Pluto-Charon" }
	}
	EllipticalOrbit
	{
		Epoch	2457218.0  # 2015 Jul 14 12:00
		Period	6.387221  # mean
		SemiMajorAxis	17465.030  # separation = 19595.764 km, mass ratio = 0.1220
		Eccentricity	0.000161  # mean
		Inclination	112.888628
		AscendingNode	227.392167
		ArgOfPericenter	172.410172
		MeanAnomaly	213.475686
	}
	BodyFrame	{ EclipticJ2000 {} }
	UniformRotation  # to match orbit
	{
		Epoch	2457218.0  # 2015 Jul 14 12:00
		Inclination	112.888628
		AscendingNode	227.392167
		MeridianAngle	205.885858
	}
	LunarLambert	0.9  # Buratti et al. (2019), 2019ApJ...874L...3B
	# GeomAlbedo	0.408
	Reflectivity	0.228  # Bond albedo
	InfoURL	"https://en.wikipedia.org/wiki/Charon_(moon)"
}

"Styx:Pluto V:134340 Pluto V:S 2012 (134340) 1:P5" "Sol/Pluto"
{
	Class	"minormoon"
	Mesh	"roughsphere.cms"
	Texture	"icymoon.*"
	Color	[ 0.827 0.827 0.827 ]  # no color data
	BlendTexture	true
	SemiAxes	[ 8 4.5 4 ]
	OrbitFrame
	{
		EclipticJ2000	{ Center "Sol/Pluto-Charon" }
	}
	EllipticalOrbit
	{
		Epoch	2457218.0  # 2015 Jul 14 12:00
		Period	20.89  # mean
		SemiMajorAxis	43163  # mean
		Eccentricity	0.025  # mean
		Inclination	112.885556
		AscendingNode	227.339963
		ArgOfPericenter	32.651282
		MeanAnomaly	311.500838
	}
	BodyFrame	{ EquatorJ2000 {} }
	UniformRotation
	{
		Period	77.76
		Inclination	29
		AscendingNode	286
	}
	LunarLambert	0.5
	GeomAlbedo	0.65
	InfoURL	"https://en.wikipedia.org/wiki/Styx_(moon)"
}

"Nix:Pluto II:134340 Pluto II:S 2005 P 2:P2" "Sol/Pluto"
{
	Class	"minormoon"
	Mesh	"nix.cmod"
	MeshCenter	[ -2.401 -2.074 3.591 ]
	Texture	"nix.*"
	Color	[ 1.0 0.997 0.993 ]
	Radius	24.2  # maximum-semi-axis
	Mass<kg>	2.7e16
	Density	1030
	OrbitFrame
	{
		EclipticJ2000	{ Center "Sol/Pluto-Charon" }
	}
	EllipticalOrbit
	{
		Epoch	2457218.0  # 2015 Jul 14 12:00
		Period	25.51  # mean
		SemiMajorAxis	49340  # mean
		Eccentricity	0.015  # mean
		Inclination	112.909674
		AscendingNode	227.385476
		ArgOfPericenter	197.568847
		MeanAnomaly	0.483986
	}
	BodyFrame	{ EquatorJ2000 {} }
	UniformRotation
	{
		Period	43.854353
		Inclination	127.7
		AscendingNode	79.1
		MeridianAngle	243.5722888
	}
	LunarLambert	1
	# GeomAlbedo	0.56
	Reflectivity	0.24  # Bond albedo
	InfoURL	"https://en.wikipedia.org/wiki/Nix_(moon)"
}

"Kerberos:Pluto IV:134340 Pluto IV:S 2011 (134340) 1:P4" "Sol/Pluto"
{
	Class	"minormoon"
	Mesh	"roughsphere.cms"
	Texture	"icymoon.*"
	Color	[ 0.774 0.774 0.774 ]  # no color data
	BlendTexture	true
	SemiAxes	[ 9.5 5 4.5 ]
	OrbitFrame
	{
		EclipticJ2000	{ Center "Sol/Pluto-Charon" }
	}
	EllipticalOrbit
	{
		Epoch	2457218.0  # 2015 Jul 14 12:00
		Period	32.75  # mean
		SemiMajorAxis	58272  # mean
		Eccentricity	0.010  # mean
		Inclination	113.007202
		AscendingNode	227.835605
		ArgOfPericenter	8.718216
		MeanAnomaly	43.929906
	}
	BodyFrame	{ EquatorJ2000 {} }
	UniformRotation
	{
		Period	127.44
		Inclination	18
		AscendingNode	312
	}
	LunarLambert	1
	GeomAlbedo	0.56
	InfoURL	"https://en.wikipedia.org/wiki/Kerberos_(moon)"
}

"Hydra:Pluto III:134340 Pluto III:S 2005 P 1:P3" "Sol/Pluto"
{
	Class	"minormoon"
	Mesh	"hydra.cmod"
	MeshCenter	[ -2.132 -1.112 -0.1515 ]
	Texture	"hydra.*"
	Color	[ 0.999 1.0 0.994 ]
	Radius	26.0  # maximum-semi-axis
	Mass<kg>	3.0e16
	Density	1220
	OrbitFrame
	{
		EclipticJ2000	{ Center "Sol/Pluto-Charon" }
	}
	EllipticalOrbit
	{
		Epoch	2457218.0  # 2015 Jul 14 12:00
		Period	38.74  # mean
		SemiMajorAxis	65175  # mean
		Eccentricity	0.009  # mean
		Inclination	112.882038
		AscendingNode	227.697392
		ArgOfPericenter	11.296494
		MeanAnomaly	58.567710
	}
	BodyFrame	{ EquatorJ2000 {} }
	UniformRotation
	{
		Period	10.313208
		Inclination	85.3
		AscendingNode	158.9
		MeridianAngle	57.0724592
	}
	LunarLambert	0.5
	# GeomAlbedo	0.83
	Reflectivity	0.32  # Bond albedo
	InfoURL	"https://en.wikipedia.org/wiki/Hydra_(moon)"
}

# Park et al. (2019), Icarus 319, 812-827
#   "High-resolution shape model of Ceres from stereophotoclinometry using Dawn Imaging Data"
#   https://ui.adsabs.harvard.edu/abs/2019Icar..319..812P
# Albedos from Li et al. (2019), Icarus 322, 144-167
#   "Spectrophotometric modeling and mapping of Ceres"
#   https://ui.adsabs.harvard.edu/abs/2019Icar..322..144L/abstract
"Ceres:1 Ceres:1943 XB:A899 OF" "Sol"
{
	Class	"dwarfplanet"
	Texture	"ceres.*"
	NormalMap	"ceres-normal.*"
	Color	[ 1.0 0.996 0.963 ]
	SemiAxes	[ 482.10 482.10 445.94 ]  # spheroid
	Mass<kg>	9.38359e20  # Park et al. (2020), 2020NatAs...4..748P
	EllipticalOrbit
	{
		Epoch	2457087.5  # 2015 Mar 06 (Dawn arrival)
		Period	4.604489842389347
		SemiMajorAxis	2.767677892029369
		Eccentricity	0.075823549018329
		Inclination	10.59298957835918
		AscendingNode	80.32901951983351
		ArgOfPericenter	72.57244735702379
		MeanAnomaly	114.5600765346728
	}
	BodyFrame	{ EquatorJ2000 {} }
	UniformRotation
	{
		# C. Raymond, JPL and T. Roatsch, DLR (28-Jun-2018)
		# https://sbnarchive.psi.edu/pds3/dawn/fc/DWNCSPC_4_01/DOCUMENT/CERES_COORD_SYS_180628.HTM
		Epoch	2451545.0         # J2000
		Period	9.074169392       # Omega = 952.1532635 +/- 0.000002 deg/day
		Inclination	23.23967  # Dec   = 66.76033 deg
		AscendingNode	21.42763  # RA    = 291.42763 deg
		MeridianAngle	170.309
	}
	LunarLambert	0.945  # from C_L parameter of Schröder et al. (2017), 2017Icar..288..201S
	# GeomAlbedo	0.096
	Reflectivity	0.037  # Bond albedo at 555 nm
	BondAlbedo	0.037
	InfoURL	"https://en.wikipedia.org/wiki/Ceres_(dwarf_planet)"
}

# Brown and Butler (2023), Planet. Sci. J. 4, 193
#   "Masses and Densities of Dwarf Planet Satellites Measured with ALMA"
#   https://ui.adsabs.harvard.edu/abs/2023PSJ.....4..193B/abstract
# Size of Orcus and albedos from Brown and Butler (2018), AJ 156, 164
#   "Medium-sized Satellites of Large Kuiper Belt Objects"
#   https://ui.adsabs.harvard.edu/abs/2018AJ....156..164B/abstract
